NORAD_CAT_ID,OBJECT_NAME,OBJECT_TYPE,EPOCH,MEAN_MOTION,ECCENTRICITY,INCLINATION,RA_OF_ASC_NODE,ARG_OF_PERICENTER,MEAN_ANOMALY,BSTAR,MEAN_MOTION_DOT,MEAN_MOTION_DDOT,TLE_LINE0,TLE_LINE1,TLE_LINE2,SEMIMAJOR_AXIS,PERIOD,APOGEE,PERIGEE,DECAYED
53929.0,STARLINK-5018,PAYLOAD,2024-07-30 21:31:57,15.08847899,0.0001691,53.2178,68.7096,96.5297,263.5888,7.2395e-05,8.65e-06,0.0,0 STARLINK-5018,1 53929U 22119AV  24212.89719181  .00000865  00000-0  72395-4 0  9997,2 53929  53.2178  68.7096 0001691  96.5297 263.5888 15.08847899103235,6917.856,95.437,540.891,538.551,0.0
53929.0,STARLINK-5018,PAYLOAD,2024-07-31 13:25:49,15.0884973,0.00016,53.2175,65.7399,117.1324,242.9831,-0.00010579,-1.972e-05,0.0,0 STARLINK-5018,1 53929U 22119AV  24213.55959625 -.00001972  00000-0 -10579-3 0  9997,2 53929  53.2175  65.7399 0001600 117.1324 242.9831 15.08849730103332,6917.851,95.437,540.823,538.609,0.0
53929.0,STARLINK-5018,PAYLOAD,2024-07-31 19:47:22,15.08833479,0.0001422,53.219,64.5486,100.7047,259.4105,-9.0159e-05,-1.722e-05,0.0,0 STARLINK-5018,1 53929U 22119AV  24213.82456597 -.00001722  00000-0 -90159-4 0  9993,2 53929  53.2190  64.5486 0001422 100.7047 259.4105 15.08833479102952,6917.9,95.438,540.749,538.782,0.0
53929.0,STARLINK-5018,PAYLOAD,2024-08-01 13:16:36,15.08846558,0.0001916,53.2196,61.2747,95.8015,264.3196,5.7239e-05,6.23e-06,0.0,0 STARLINK-5018,1 53929U 22119AV  24214.55319452  .00000623  00000-0  57239-4 0  9991,2 53929  53.2196  61.2747 0001916  95.8015 264.3196 15.08846558103069,6917.86,95.437,541.051,538.4,0.0
53929.0,STARLINK-5018,PAYLOAD,2024-08-01 21:13:30,15.08861333,0.0001047,53.2171,59.7847,74.2365,285.8742,0.0001832,2.631e-05,0.0,0 STARLINK-5018,1 53929U 22119AV  24214.88437984  .00002631  00000-0  18320-3 0  9996,2 53929  53.2171  59.7847 0001047  74.2365 285.8742 15.08861333103118,6917.815,95.436,540.404,538.956,0.0
53929.0,STARLINK-5018,PAYLOAD,2024-08-01 22:48:53,15.08859954,0.0001386,53.2175,59.4903,82.2046,277.9103,0.00018864,2.717e-05,0.0,0 STARLINK-5018,1 53929U 22119AV  24214.95062058  .00002717  00000-0  18864-3 0  9998,2 53929  53.2175  59.4903 0001386  82.2046 277.9103 15.08859954103549,6917.819,95.436,540.643,538.726,0.0
53929.0,STARLINK-5018,PAYLOAD,2024-08-02 13:07:24,15.08828848,0.0002157,53.217,56.8148,83.4495,276.6743,0.00010443,1.374e-05,0.0,0 STARLINK-5018,1 53929U 22119AV  24215.54680726  .00001374  00000-0  10443-3 0  9995,2 53929  53.2170  56.8148 0002157  83.4495 276.6743 15.08828848103212,6917.914,95.438,541.272,538.287,0.0
53929.0,STARLINK-5018,PAYLOAD,2024-08-02 21:04:20,15.08827528,0.0001508,53.2176,55.3263,83.2979,276.8185,3.227e-05,2.25e-06,0.0,0 STARLINK-5018,1 53929U 22119AV  24215.87801273  .00000225  00000-0  32270-4 0  9990,2 53929  53.2176  55.3263 0001508  83.2979 276.8185 15.08827528103681,6917.919,95.438,540.827,538.74,0.0
53929.0,STARLINK-5018,PAYLOAD,2024-08-03 12:58:10,15.08848787,0.0001565,53.2168,52.353,86.0231,274.094,0.00024557,3.623e-05,0.0,0 STARLINK-5018,1 53929U 22119AV  24216.54040013  .00003623  00000-0  24557-3 0  9995,2 53929  53.2168  52.3530 0001565  86.0231 274.0940 15.08848787103365,6917.854,95.437,540.801,538.636,0.0
53929.0,STARLINK-5018,PAYLOAD,2024-08-03 19:19:43,15.08852449,0.0001473,53.2163,51.1629,91.0047,269.1114,0.00083677,0.00013059,0.0,0 STARLINK-5018,1 53929U 22119AV  24216.80536242  .00013059  00000-0  83677-3 0  9990,2 53929  53.2163  51.1629 0001473  91.0047 269.1114 15.08852449103824,6917.842,95.437,540.726,538.688,0.0
53929.0,STARLINK-5018,PAYLOAD,2024-08-04 12:48:57,15.08849523,0.0001914,53.2158,47.8928,97.6507,262.4702,0.0003762,5.706e-05,0.0,0 STARLINK-5018,1 53929U 22119AV  24217.53400193  .00005706  00000-0  37620-3 0  9993,2 53929  53.2158  47.8928 0001914  97.6507 262.4702 15.08849523103519,6917.851,95.437,541.04,538.392,0.0
53929.0,STARLINK-5018,PAYLOAD,2024-08-04 19:10:30,15.08848106,0.0001727,53.217,46.7018,98.5577,261.5611,0.00029679,4.44e-05,0.0,0 STARLINK-5018,1 53929U 22119AV  24217.79896126  .00004440  00000-0  29679-3 0  9995,2 53929  53.2170  46.7018 0001727  98.5577 261.5611 15.08848106103975,6917.856,95.437,540.915,538.526,0.0
53929.0,STARLINK-5018,PAYLOAD,2024-08-05 19:01:17,15.08846624,0.0001442,53.2171,42.2422,89.148,270.9677,6.2266e-05,7.03e-06,0.0,0 STARLINK-5018,1 53929U 22119AV  24218.79255893  .00000703  00000-0  62266-4 0  9994,2 53929  53.2171  42.2422 0001442  89.1480 270.9677 15.08846624103709,6917.86,95.437,540.723,538.728,0.0
53929.0,STARLINK-5018,PAYLOAD,2024-08-06 12:30:32,15.08837383,0.0001205,53.2169,38.971,96.5986,263.5143,4.1945e-05,3.8e-06,0.0,0 STARLINK-5018,1 53929U 22119AV  24219.52120433  .00000380  00000-0  41945-4 0  9999,2 53929  53.2169  38.9710 0001205  96.5986 263.5143 15.08837383103818,6917.888,95.438,540.587,538.92,0.0
53929.0,STARLINK-5018,PAYLOAD,2024-08-06 18:52:04,15.08838319,0.0001166,53.2171,37.7836,95.5389,264.5736,6.8842e-05,8.08e-06,0.0,0 STARLINK-5018,1 53929U 22119AV  24219.78616369  .00000808  00000-0  68842-4 0  9995,2 53929  53.2171  37.7836 0001166  95.5389 264.5736 15.08838319104279,6917.886,95.438,540.557,538.944,0.0
53929.0,STARLINK-5018,PAYLOAD,2024-08-07 12:21:19,15.08839126,0.0001183,53.2184,34.5137,99.3078,260.8048,9.1072e-05,1.162e-05,0.0,0 STARLINK-5018,1 53929U 22119AV  24220.51480505  .00001162  00000-0  91072-4 0  9994,2 53929  53.2184  34.5137 0001183  99.3078 260.8048 15.08839126104382,6917.883,95.438,540.566,538.93,0.0
53929.0,STARLINK-5018,PAYLOAD,2024-08-07 17:07:28,15.08843666,0.0001074,53.2181,33.6191,74.8379,285.2732,0.00018601,2.674e-05,0.0,0 STARLINK-5018,1 53929U 22119AV  24220.71352360  .00002674  00000-0  18601-3 0  9998,2 53929  53.2181  33.6191 0001074  74.8379 285.2732 15.08843666103991,6917.869,95.437,540.477,538.991,0.0
53929.0,STARLINK-5018,PAYLOAD,2024-08-08 12:12:06,15.08833619,0.0001049,53.2177,30.0502,67.3045,292.8058,7.6819e-05,9.35e-06,0.0,0 STARLINK-5018,1 53929U 22119AV  24221.50841082  .00000935  00000-0  76819-4 0  9994,2 53929  53.2177  30.0502 0001049  67.3045 292.8058 15.08833619104535,6917.9,95.438,540.491,539.039,0.0
53929.0,STARLINK-5018,PAYLOAD,2024-08-08 18:33:38,15.08851305,0.0001179,53.2182,28.8635,87.8678,272.2449,0.00031438,4.721e-05,0.0,0 STARLINK-5018,1 53929U 22119AV  24221.77336423  .00004721  00000-0  31438-3 0  9995,2 53929  53.2182  28.8635 0001179  87.8678 272.2449 15.08851305104152,6917.846,95.437,540.526,538.895,0.0
53929.0,STARLINK-5018,PAYLOAD,2024-08-09 04:05:57,15.0884523,0.0001256,53.2179,27.0765,87.4064,272.7072,0.00018587,2.672e-05,0.0,0 STARLINK-5018,1 53929U 22119AV  24222.17080576  .00002672  00000-0  18587-3 0  9998,2 53929  53.2179  27.0765 0001256  87.4064 272.7072 15.08845230104218,6917.864,95.437,540.598,538.861,0.0
53929.0,STARLINK-5018,PAYLOAD,2024-08-09 19:59:47,15.08862188,0.0001101,53.2182,24.1032,109.7671,250.344,0.00034284,5.176e-05,0.0,0 STARLINK-5018,1 53929U 22119AV  24222.83319261  .00005176  00000-0  34284-3 0  9991,2 53929  53.2182  24.1032 0001101 109.7671 250.3440 15.08862188104311,6917.813,95.436,540.439,538.916,0.0
53929.0,STARLINK-5018,PAYLOAD,2024-08-10 10:18:17,15.0883455,0.0001209,53.2186,21.4258,96.1256,263.9874,-0.00014242,-2.553e-05,0.0,0 STARLINK-5018,1 53929U 22119AV  24223.42936860 -.00002553  00000-0 -14242-3 0  9997,2 53929  53.2186  21.4258 0001209  96.1256 263.9874 15.08834550104405,6917.897,95.438,540.598,538.926,0.0
53929.0,STARLINK-5018,PAYLOAD,2024-08-10 19:50:35,15.08843025,0.0001609,53.218,19.6429,96.0852,264.0323,1.3654e-05,-7.1e-07,0.0,0 STARLINK-5018,1 53929U 22119AV  24223.82680520 -.00000071  00000-0  13654-4 0  9999,2 53929  53.2180  19.6429 0001609  96.0852 264.0323 15.08843025104467,6917.871,95.437,540.849,538.623,0.0
53929.0,STARLINK-5018,PAYLOAD,2024-08-11 10:09:04,15.08835215,0.0001467,53.219,16.9682,75.8512,284.2643,-2.3052e-06,-3.25e-06,0.0,0 STARLINK-5018,1 53929U 22119AV  24224.42297197 -.00000325  00000-0 -23052-5 0  9997,2 53929  53.2190  16.9682 0001467  75.8512 284.2643 15.08835215104550,6917.895,95.438,540.775,538.745,0.0
53929.0,STARLINK-5018,PAYLOAD,2024-08-11 19:41:22,15.08854647,0.0001438,53.2161,15.1889,70.5006,289.6141,0.00014265,1.984e-05,0.0,0 STARLINK-5018,1 53929U 22119AV  24224.82040108  .00001984  00000-0  14265-3 0  9993,2 53929  53.2161  15.1889 0001438  70.5006 289.6141 15.08854647104615,6917.836,95.437,540.695,538.706,0.0
53929.0,STARLINK-5018,PAYLOAD,2024-08-12 03:38:19,15.08837766,0.0001779,53.2155,13.6993,72.2702,287.8484,0.00010973,1.459e-05,0.0,0 STARLINK-5018,1 53929U 22119AV  24225.15160947  .00001459  00000-0  10973-3 0  9993,2 53929  53.2155  13.6993 0001779  72.2702 287.8484 15.08837766104665,6917.887,95.438,540.983,538.522,0.0
53929.0,STARLINK-5018,PAYLOAD,2024-08-12 19:32:08,15.08874027,0.0001849,53.2184,10.7191,93.0356,267.0847,0.00061993,9.601e-05,0.0,0 STARLINK-5018,1 53929U 22119AV  24225.81399255  .00009601  00000-0  61993-3 0  9997,2 53929  53.2184  10.7191 0001849  93.0356 267.0847 15.08874027104764,6917.776,95.435,540.92,538.362,0.0
53929.0,STARLINK-5018,PAYLOAD,2024-08-12 21:07:30,15.08903212,0.0001029,53.2191,10.4232,86.6794,273.4316,0.0011788,0.00018555,0.0,0 STARLINK-5018,1 53929U 22119AV  24225.88021976  .00018555  00000-0  11788-2 0  9990,2 53929  53.2191  10.4232 0001029  86.6794 273.4316 15.08903212105198,6917.687,95.434,540.264,538.84,0.0
53929.0,STARLINK-5018,PAYLOAD,2024-08-13 09:50:37,15.088387,0.0002292,53.2095,8.0447,101.6362,258.4887,-0.00019102,-3.327e-05,0.0,0 STARLINK-5018,1 53929U 22119AV  24226.41015919 -.00003327  00000-0 -19102-3 0  9992,2 53929  53.2095   8.0447 0002292 101.6362 258.4887 15.08838700104851,6917.884,95.438,541.335,538.164,0.0
53929.0,STARLINK-5018,PAYLOAD,2024-08-13 19:22:58,15.08808067,0.0001552,53.2123,6.2617,97.4822,262.6346,-0.00063605,-0.00010388,0.0,0 STARLINK-5018,1 53929U 22119AV  24226.80761626 -.00010388  00000-0 -63605-3 0  9990,2 53929  53.2123   6.2617 0001552  97.4822 262.6346 15.08808067104910,6917.978,95.44,540.917,538.769,0.0
